start=new Date('2022-10-06T00:00:00.000Z').valueOf();
sats=[{"TLE_LINE1":"1 52854U 22062AA  22278.91667824  .00019182  00000-0  12206-2 0  9994","GP_ID":"214277566","BSTAR":"0.00122060000000","REV_AT_EPOCH":"130","LAUNCH_DATE":"2022-06-17","REF_FRAME":"TEME","APOAPSIS":"541.137","NORAD_CAT_ID":"52854","CENTER_NAME":"EARTH","COUNTRY_CODE":"US","RCS_SIZE":"LARGE","DECAY_DATE":null,"PERIAPSIS":"538.460","OBJECT_NAME":"STARLINK-4204","ARG_OF_PERICENTER":"38.0618","EPHEMERIS_TYPE":"0","RA_OF_ASC_NODE":"239.0504","SEMIMAJOR_AXIS":"6917.933","MEAN_ANOMALY":"116.7518","CLASSIFICATION_TYPE":"U","ECCENTRICITY":"0.00019350","EPOCH":"2022-10-05T22:00:00.999936","PERIOD":"95.439","ELEMENT_SET_NO":"999","OBJECT_ID":"2022-062AA","TLE_LINE2":"2 52854  53.2141 239.0504 0001935  38.0618 116.7518 15.08822680  1302","FILE":"3593077","TIME_SYSTEM":"UTC","MEAN_MOTION_DOT":"0.00019182","OBJECT_TYPE":"PAYLOAD","SITE":"AFETR","MEAN_ELEMENT_THEORY":"SGP4","MEAN_MOTION":"15.08822680","INCLINATION":"53.2141","MEAN_MOTION_DDOT":"0.0000000000000"},{"MEAN_ANOMALY":"161.5136","CLASSIFICATION_TYPE":"U","ECCENTRICITY":"0.00017210","EPOCH":"2022-10-05T22:00:00.999936","SEMIMAJOR_AXIS":"6917.907","OBJECT_ID":"2022-062AB","ELEMENT_SET_NO":"999","PERIOD":"95.438","SITE":"AFETR","FILE":"3593077","TLE_LINE2":"2 52855  53.2147 239.0520 0001721  53.2929 161.5136 15.08831421  1301","TIME_SYSTEM":"UTC","OBJECT_TYPE":"PAYLOAD","MEAN_MOTION_DOT":"-0.00018601","MEAN_MOTION_DDOT":"0.0000000000000","MEAN_ELEMENT_THEORY":"SGP4","INCLINATION":"53.2147","MEAN_MOTION":"15.08831421","BSTAR":"-0.00115390000000","REV_AT_EPOCH":"130","LAUNCH_DATE":"2022-06-17","REF_FRAME":"TEME","TLE_LINE1":"1 52855U 22062AB  22278.91667824 -.00018601  00000-0 -11539-2 0  9990","GP_ID":"214278307","NORAD_CAT_ID":"52855","CENTER_NAME":"EARTH","APOAPSIS":"540.962","PERIAPSIS":"538.581","OBJECT_NAME":"STARLINK-4209","COUNTRY_CODE":"US","DECAY_DATE":null,"RCS_SIZE":"LARGE","ARG_OF_PERICENTER":"53.2929","EPHEMERIS_TYPE":"0","RA_OF_ASC_NODE":"239.0520"},{"TLE_LINE2":"2 52856  53.2146 239.0506 0001801  50.7397 144.0698 15.08848850  1308","FILE":"3593077","MEAN_MOTION_DOT":"-0.00017050","OBJECT_TYPE":"PAYLOAD","TIME_SYSTEM":"UTC","SITE":"AFETR","MEAN_ELEMENT_THEORY":"SGP4","MEAN_MOTION":"15.08848850","INCLINATION":"53.2146","MEAN_MOTION_DDOT":"0.0000000000000","SEMIMAJOR_AXIS":"6917.853","CLASSIFICATION_TYPE":"U","MEAN_ANOMALY":"144.0698","EPOCH":"2022-10-05T22:00:00.999936","ECCENTRICITY":"0.00018010","PERIOD":"95.437","ELEMENT_SET_NO":"999","OBJECT_ID":"2022-062AC","COUNTRY_CODE":"US","RCS_SIZE":"LARGE","DECAY_DATE":null,"PERIAPSIS":"538.472","OBJECT_NAME":"STARLINK-4201","RA_OF_ASC_NODE":"239.0506","ARG_OF_PERICENTER":"50.7397","EPHEMERIS_TYPE":"0","GP_ID":"214278145","TLE_LINE1":"1 52856U 22062AC  22278.91667824 -.00017050  00000-0 -10554-2 0  9994","REF_FRAME":"TEME","LAUNCH_DATE":"2022-06-17","REV_AT_EPOCH":"130","BSTAR":"-0.00105540000000","APOAPSIS":"540.964","NORAD_CAT_ID":"52856","CENTER_NAME":"EARTH"},{"APOAPSIS":"540.861","CENTER_NAME":"EARTH","NORAD_CAT_ID":"52857","GP_ID":"214278466","TLE_LINE1":"1 52857U 22062AD  22278.91667824  .00024079  00000-0  15266-2 0  9997","LAUNCH_DATE":"2022-06-17","REF_FRAME":"TEME","REV_AT_EPOCH":"130","BSTAR":"0.00152660000000","RA_OF_ASC_NODE":"239.0514","EPHEMERIS_TYPE":"0","ARG_OF_PERICENTER":"59.1065","DECAY_DATE":null,"RCS_SIZE":"LARGE","COUNTRY_CODE":"US","OBJECT_NAME":"STARLINK-4199","PERIAPSIS":"538.744","ELEMENT_SET_NO":"999","PERIOD":"95.439","OBJECT_ID":"2022-062AD","SEMIMAJOR_AXIS":"6917.938","EPOCH":"2022-10-05T22:00:00.999936","ECCENTRICITY":"0.00015300","CLASSIFICATION_TYPE":"U","MEAN_ANOMALY":"195.6958","INCLINATION":"53.2143","MEAN_MOTION":"15.08821309","MEAN_ELEMENT_THEORY":"SGP4","MEAN_MOTION_DDOT":"0.0000000000000","MEAN_MOTION_DOT":"0.00024079","OBJECT_TYPE":"PAYLOAD","TIME_SYSTEM":"UTC","FILE":"3593077","TLE_LINE2":"2 52857  53.2143 239.0514 0001530  59.1065 195.6958 15.08821309  1300","SITE":"AFETR"},{"OBJECT_TYPE":"PAYLOAD","MEAN_MOTION_DOT":"-0.00016012","TIME_SYSTEM":"UTC","TLE_LINE2":"2 52858  53.2149 239.0515 0001673  58.3348 151.2489 15.08832479  1308","FILE":"3593077","SITE":"AFETR","INCLINATION":"53.2149","MEAN_MOTION":"15.08832479","MEAN_ELEMENT_THEORY":"SGP4","MEAN_MOTION_DDOT":"0.0000000000000","SEMIMAJOR_AXIS":"6917.903","EPOCH":"2022-10-05T22:00:00.999936","ECCENTRICITY":"0.00016730","CLASSIFICATION_TYPE":"U","MEAN_ANOMALY":"151.2489","PERIOD":"95.438","ELEMENT_SET_NO":"999","OBJECT_ID":"2022-062AE","RCS_SIZE":"LARGE","DECAY_DATE":null,"COUNTRY_CODE":"US","OBJECT_NAME":"STARLINK-4198","PERIAPSIS":"538.611","RA_OF_ASC_NODE":"239.0515","ARG_OF_PERICENTER":"58.3348","EPHEMERIS_TYPE":"0","TLE_LINE1":"1 52858U 22062AE  22278.91667824 -.00016012  00000-0 -99039-3 0  9999","GP_ID":"214277983","LAUNCH_DATE":"2022-06-17","REF_FRAME":"TEME","BSTAR":"-0.00099039000000","REV_AT_EPOCH":"130","APOAPSIS":"540.926","CENTER_NAME":"EARTH","NORAD_CAT_ID":"52858"},{"FILE":"3593077","TLE_LINE2":"2 52859  53.2153 239.0437 0001406  61.7871 213.0232 15.08827591  1302","MEAN_MOTION_DOT":"0.00030657","OBJECT_TYPE":"PAYLOAD","TIME_SYSTEM":"UTC","SITE":"AFETR","MEAN_ELEMENT_THEORY":"SGP4","MEAN_MOTION":"15.08827591","INCLINATION":"53.2153","MEAN_MOTION_DDOT":"0.0000000000000","SEMIMAJOR_AXIS":"6917.918","CLASSIFICATION_TYPE":"U","MEAN_ANOMALY":"213.0232","EPOCH":"2022-10-05T22:00:00.999936","ECCENTRICITY":"0.00014060","ELEMENT_SET_NO":"999","PERIOD":"95.438","OBJECT_ID":"2022-062AF","COUNTRY_CODE":"US","DECAY_DATE":null,"RCS_SIZE":"LARGE","PERIAPSIS":"538.811","OBJECT_NAME":"STARLINK-4196","RA_OF_ASC_NODE":"239.0437","ARG_OF_PERICENTER":"61.7871","EPHEMERIS_TYPE":"0","GP_ID":"214277892","TLE_LINE1":"1 52859U 22062AF  22278.91667824  .00030657  00000-0  19366-2 0  9993","REF_FRAME":"TEME","LAUNCH_DATE":"2022-06-17","BSTAR":"0.00193660000000","REV_AT_EPOCH":"130","APOAPSIS":"540.756","NORAD_CAT_ID":"52859","CENTER_NAME":"EARTH"},{"MEAN_MOTION_DOT":"-0.00005389","OBJECT_TYPE":"PAYLOAD","TIME_SYSTEM":"UTC","TLE_LINE2":"2 52860  53.2139 239.0511 0001671  49.6584 185.1526 15.08833903  1300","FILE":"3593077","SITE":"AFETR","MEAN_MOTION":"15.08833903","INCLINATION":"53.2139","MEAN_ELEMENT_THEORY":"SGP4","MEAN_MOTION_DDOT":"0.0000000000000","SEMIMAJOR_AXIS":"6917.899","EPOCH":"2022-10-05T22:00:00.999936","ECCENTRICITY":"0.00016710","CLASSIFICATION_TYPE":"U","MEAN_ANOMALY":"185.1526","PERIOD":"95.438","ELEMENT_SET_NO":"999","OBJECT_ID":"2022-062AG","DECAY_DATE":null,"RCS_SIZE":"LARGE","COUNTRY_CODE":"US","OBJECT_NAME":"STARLINK-4191","PERIAPSIS":"538.608","RA_OF_ASC_NODE":"239.0511","ARG_OF_PERICENTER":"49.6584","EPHEMERIS_TYPE":"0","GP_ID":"214277729","TLE_LINE1":"1 52860U 22062AG  22278.91667824 -.00005389  00000-0 -32078-3 0  9997","REF_FRAME":"TEME","LAUNCH_DATE":"2022-06-17","REV_AT_EPOCH":"130","BSTAR":"-0.00032078000000","APOAPSIS":"540.920","CENTER_NAME":"EARTH","NORAD_CAT_ID":"52860"},{"APOAPSIS":"540.891","NORAD_CAT_ID":"52861","CENTER_NAME":"EARTH","GP_ID":"214278708","TLE_LINE1":"1 52861U 22062AH  22278.91667824 -.00014958  00000-0 -92384-3 0  9996","BSTAR":"-0.00092384000000","REV_AT_EPOCH":"130","LAUNCH_DATE":"2022-06-17","REF_FRAME":"TEME","ARG_OF_PERICENTER":"46.3894","EPHEMERIS_TYPE":"0","RA_OF_ASC_NODE":"239.0465","COUNTRY_CODE":"US","RCS_SIZE":"LARGE","DECAY_DATE":null,"PERIAPSIS":"538.640","OBJECT_NAME":"STARLINK-4112","PERIOD":"95.438","ELEMENT_SET_NO":"999","OBJECT_ID":"2022-062AH","SEMIMAJOR_AXIS":"6917.901","MEAN_ANOMALY":"328.4109","CLASSIFICATION_TYPE":"U","ECCENTRICITY":"0.00016270","EPOCH":"2022-10-05T22:00:00.999936","MEAN_ELEMENT_THEORY":"SGP4","MEAN_MOTION":"15.08833341","INCLINATION":"53.2172","MEAN_MOTION_DDOT":"0.0000000000000","TLE_LINE2":"2 52861  53.2172 239.0465 0001627  46.3894 328.4109 15.08833341  1300","FILE":"3593077","TIME_SYSTEM":"UTC","OBJECT_TYPE":"PAYLOAD","MEAN_MOTION_DOT":"-0.00014958","SITE":"AFETR"},{"TIME_SYSTEM":"UTC","MEAN_MOTION_DOT":"0.00014031","OBJECT_TYPE":"PAYLOAD","FILE":"3593077","TLE_LINE2":"2 52862  53.2167 239.0461 0001341  71.2709 223.5115 15.08814164  1300","SITE":"AFETR","INCLINATION":"53.2167","MEAN_MOTION":"15.08814164","MEAN_ELEMENT_THEORY":"SGP4","MEAN_MOTION_DDOT":"0.0000000000000","SEMIMAJOR_AXIS":"6917.959","ECCENTRICITY":"0.00013410","EPOCH":"2022-10-05T22:00:00.999936","MEAN_ANOMALY":"223.5115","CLASSIFICATION_TYPE":"U","ELEMENT_SET_NO":"999","PERIOD":"95.439","OBJECT_ID":"2022-062AJ","RCS_SIZE":"LARGE","DECAY_DATE":null,"COUNTRY_CODE":"US","OBJECT_NAME":"STARLINK-4010","PERIAPSIS":"538.897","EPHEMERIS_TYPE":"0","ARG_OF_PERICENTER":"71.2709","RA_OF_ASC_NODE":"239.0461","TLE_LINE1":"1 52862U 22062AJ  22278.91667824  .00014031  00000-0  89853-3 0  9994","GP_ID":"214277567","REV_AT_EPOCH":"130","BSTAR":"0.00089853000000","REF_FRAME":"TEME","LAUNCH_DATE":"2022-06-17","APOAPSIS":"540.752","CENTER_NAME":"EARTH","NORAD_CAT_ID":"52862"},{"TIME_SYSTEM":"UTC","OBJECT_TYPE":"PAYLOAD","MEAN_MOTION_DOT":"0.00032946","TLE_LINE2":"2 52863  53.2165 239.0431 0001491  52.9708 281.8325 15.08819924  1306","FILE":"3593077","SITE":"AFETR","INCLINATION":"53.2165","MEAN_MOTION":"15.08819924","MEAN_ELEMENT_THEORY":"SGP4","MEAN_MOTION_DDOT":"0.0000000000000","SEMIMAJOR_AXIS":"6917.942","ECCENTRICITY":"0.00014910","EPOCH":"2022-10-05T22:00:00.999936","MEAN_ANOMALY":"281.8325","CLASSIFICATION_TYPE":"U","ELEMENT_SET_NO":"999","PERIOD":"95.439","OBJECT_ID":"2022-062AK","DECAY_DATE":null,"RCS_SIZE":"LARGE","COUNTRY_CODE":"US","OBJECT_NAME":"STARLINK-4270","PERIAPSIS":"538.775","EPHEMERIS_TYPE":"0","ARG_OF_PERICENTER":"52.9708","RA_OF_ASC_NODE":"239.0431","GP_ID":"214278308","TLE_LINE1":"1 52863U 22062AK  22278.91667824  .00032946  00000-0  20796-2 0  9990","REV_AT_EPOCH":"130","BSTAR":"0.00207960000000","LAUNCH_DATE":"2022-06-17","REF_FRAME":"TEME","APOAPSIS":"540.838","CENTER_NAME":"EARTH","NORAD_CAT_ID":"52863"}];
